NORAD_CAT_ID,OBJECT_NAME,OBJECT_TYPE,EPOCH,MEAN_MOTION,ECCENTRICITY,INCLINATION,RA_OF_ASC_NODE,ARG_OF_PERICENTER,MEAN_ANOMALY,BSTAR,MEAN_MOTION_DOT,MEAN_MOTION_DDOT,TLE_LINE0,TLE_LINE1,TLE_LINE2,SEMIMAJOR_AXIS,PERIOD,APOGEE,PERIGEE,DECAYED
51756.0,STARLINK-3513,PAYLOAD,2024-02-08 11:49:57,15.08841066,0.0001478,53.2168,121.7763,93.8048,266.3113,-3.0393e-05,-7.72e-06,0.0,0 STARLINK-3513,1 51756U 22016AU  24039.49302533 -.00000772  00000-0 -30393-4 0  9992,2 51756  53.2168 121.7763 0001478  93.8048 266.3113 15.08841066110014,6917.877,95.437,540.765,538.72,0.0
51756.0,STARLINK-3513,PAYLOAD,2024-02-09 11:40:44,15.08843527,0.0001523,53.2175,117.3192,85.7858,274.3308,8.9016e-05,1.129e-05,0.0,0 STARLINK-3513,1 51756U 22016AU  24040.48662102  .00001129  00000-0  89016-4 0  9995,2 51756  53.2175 117.3192 0001523  85.7858 274.3308 15.08843527109094,6917.87,95.437,540.788,538.681,0.0
51756.0,STARLINK-3513,PAYLOAD,2024-02-10 11:31:31,15.08840884,0.0001691,53.2178,112.8603,106.2742,253.8437,5.4979e-05,5.87e-06,0.0,0 STARLINK-3513,1 51756U 22016AU  24041.48022433  .00000587  00000-0  54979-4 0  9990,2 51756  53.2178 112.8603 0001691 106.2742 253.8437 15.08840884110316,6917.878,95.437,540.913,538.573,0.0
51756.0,STARLINK-3513,PAYLOAD,2024-02-11 09:46:55,15.08843119,0.0001614,53.2176,108.6941,98.524,261.5935,1.2627e-05,-8.7e-07,0.0,0 STARLINK-3513,1 51756U 22016AU  24042.40758485 -.00000087  00000-0  12627-4 0  9996,2 51756  53.2176 108.6941 0001614  98.5240 261.5935 15.08843119109381,6917.871,95.437,540.852,538.619,0.0
51756.0,STARLINK-3513,PAYLOAD,2024-02-12 09:37:41,15.08846287,0.0001648,53.218,104.2336,107.2541,252.8632,6.3916e-05,7.29e-06,0.0,0 STARLINK-3513,1 51756U 22016AU  24043.40118052  .00000729  00000-0  63916-4 0  9996,2 51756  53.2180 104.2336 0001648 107.2541 252.8632 15.08846287110608,6917.861,95.437,540.866,538.586,0.0
51756.0,STARLINK-3513,PAYLOAD,2024-02-12 14:23:51,15.08851426,0.0001884,53.2176,103.3369,108.4162,251.7035,3.6472e-05,2.93e-06,0.0,0 STARLINK-3513,1 51756U 22016AU  24043.59989704  .00000293  00000-0  36472-4 0  9999,2 51756  53.2176 103.3369 0001884 108.4162 251.7035 15.08851426109562,6917.845,95.437,541.014,538.407,0.0
51756.0,STARLINK-3513,PAYLOAD,2024-02-13 11:03:54,15.08828335,0.0001548,53.2176,99.4722,77.9741,282.1424,-6.5768e-05,-1.334e-05,0.0,0 STARLINK-3513,1 51756U 22016AU  24044.46104176 -.00001334  00000-0 -65768-4 0  9997,2 51756  53.2176  99.4722 0001548  77.9741 282.1424 15.08828335110767,6917.916,95.438,540.852,538.71,0.0
51756.0,STARLINK-3513,PAYLOAD,2024-02-13 20:36:12,15.08839449,0.0001572,53.2183,97.6848,94.5944,265.5228,3.6772e-05,2.97e-06,0.0,0 STARLINK-3513,1 51756U 22016AU  24044.85847238  .00000297  00000-0  36772-4 0  9991,2 51756  53.2183  97.6848 0001572  94.5944 265.5228 15.08839449109753,6917.882,95.438,540.835,538.66,0.0
51756.0,STARLINK-3513,PAYLOAD,2024-02-14 10:54:38,15.08855332,0.0001694,53.2182,95.0072,107.1046,253.0132,0.00022006,3.217e-05,0.0,0 STARLINK-3513,1 51756U 22016AU  24045.45461480  .00003217  00000-0  22006-3 0  9998,2 51756  53.2182  95.0072 0001694 107.1046 253.0132 15.08855332110917,6917.834,95.437,540.87,538.527,0.0
51756.0,STARLINK-3513,PAYLOAD,2024-02-14 20:26:58,15.08844023,0.0001652,53.2188,93.2265,120.0631,240.0525,7.1821e-05,8.55e-06,0.0,0 STARLINK-3513,1 51756U 22016AU  24045.85206423  .00000855  00000-0  71821-4 0  9991,2 51756  53.2188  93.2265 0001652 120.0631 240.0525 15.08844023109909,6917.868,95.437,540.876,538.59,0.0
51756.0,STARLINK-3513,PAYLOAD,2024-02-15 02:48:32,15.08822149,0.0001458,53.2169,92.038,101.871,258.2446,0.00011622,1.561e-05,0.0,0 STARLINK-3513,1 51756U 22016AU  24046.11704194  .00001561  00000-0  11622-3 0  9996,2 51756  53.2169  92.0380 0001458 101.8710 258.2446 15.08822149111015,6917.935,95.439,540.809,538.791,0.0
51756.0,STARLINK-3513,PAYLOAD,2024-02-15 09:10:04,15.08832843,0.0001209,53.2159,90.8511,101.7857,258.3271,4.6141e-05,4.46e-06,0.0,0 STARLINK-3513,1 51756U 22016AU  24046.38199832  .00000446  00000-0  46141-4 0  9998,2 51756  53.2159  90.8511 0001209 101.7857 258.3271 15.08832843111054,6917.902,95.438,540.604,538.931,0.0
51756.0,STARLINK-3513,PAYLOAD,2024-02-15 20:17:46,15.08837807,0.0001285,53.2156,88.7688,101.8988,258.2148,5.9226e-05,6.55e-06,0.0,0 STARLINK-3513,1 51756U 22016AU  24046.84567615  .00000655  00000-0  59226-4 0  9997,2 51756  53.2156  88.7688 0001285 101.8988 258.2148 15.08837807110058,6917.887,95.438,540.641,538.863,0.0
51756.0,STARLINK-3513,PAYLOAD,2024-02-16 12:11:36,15.08855177,0.0001408,53.2157,85.7935,118.4798,241.6336,-1.2856e-05,-4.93e-06,0.0,0 STARLINK-3513,1 51756U 22016AU  24047.50806543 -.00000493  00000-0 -12856-4 0  9997,2 51756  53.2157  85.7935 0001408 118.4798 241.6336 15.08855177111226,6917.834,95.437,540.673,538.725,0.0
51756.0,STARLINK-3513,PAYLOAD,2024-02-17 02:30:06,15.08829797,0.0001535,53.2178,83.1143,115.0025,245.1126,0.00021342,3.109e-05,0.0,0 STARLINK-3513,1 51756U 22016AU  24048.10424060  .00003109  00000-0  21342-3 0  9998,2 51756  53.2178  83.1143 0001535 115.0025 245.1126 15.08829797111314,6917.912,95.438,540.838,538.715,0.0
51756.0,STARLINK-3513,PAYLOAD,2024-02-17 08:51:38,15.088382,0.0001478,53.2156,81.9287,97.6448,262.4712,0.0001679,2.385e-05,0.0,0 STARLINK-3513,1 51756U 22016AU  24048.36919649  .00002385  00000-0  16790-3 0  9994,2 51756  53.2156  81.9287 0001478  97.6448 262.4712 15.08838200111351,6917.886,95.438,540.773,538.728,0.0
51756.0,STARLINK-3513,PAYLOAD,2024-02-18 11:53:11,15.08849128,0.0001581,53.2166,76.8734,97.6535,262.4637,0.00017869,2.558e-05,0.0,0 STARLINK-3513,1 51756U 22016AU  24049.49527312  .00002558  00000-0  17869-3 0  9991,2 51756  53.2166  76.8734 0001581  97.6535 262.4637 15.08849128111520,6917.852,95.437,540.811,538.624,0.0
51756.0,STARLINK-3513,PAYLOAD,2024-02-18 18:14:44,15.08845082,0.0001389,53.2158,75.6821,88.4059,271.7092,8.0604e-05,9.95e-06,0.0,0 STARLINK-3513,1 51756U 22016AU  24049.76023425  .00000995  00000-0  80604-4 0  9998,2 51756  53.2158  75.6821 0001389  88.4059 271.7092 15.08845082110498,6917.865,95.437,540.691,538.769,0.0
51756.0,STARLINK-3513,PAYLOAD,2024-02-19 02:11:40,15.08836766,0.0001656,53.2174,74.1965,87.5773,272.5408,-1.7116e-05,-5.6e-06,0.0,0 STARLINK-3513,1 51756U 22016AU  24050.09143990 -.00000560  00000-0 -17116-4 0  9994,2 51756  53.2174  74.1965 0001656  87.5773 272.5408 15.08836766111613,6917.89,95.438,540.901,538.61,0.0
51756.0,STARLINK-3513,PAYLOAD,2024-02-19 08:33:12,15.08840268,0.0001515,53.2178,73.0102,91.5524,268.5642,8.7776e-05,1.109e-05,0.0,0 STARLINK-3513,1 51756U 22016AU  24050.35639961  .00001109  00000-0  87776-4 0  9998,2 51756  53.2178  73.0102 0001515  91.5524 268.5642 15.08840268110583,6917.88,95.438,540.793,538.697,0.0
51756.0,STARLINK-3513,PAYLOAD,2024-02-19 18:05:32,15.08837019,0.0001402,53.2169,71.2267,90.9342,269.1811,5.198e-05,5.39e-06,0.0,0 STARLINK-3513,1 51756U 22016AU  24050.75384318  .00000539  00000-0  51980-4 0  9999,2 51756  53.2169  71.2267 0001402  90.9342 269.1811 15.08837019110643,6917.89,95.438,540.724,538.785,0.0
51756.0,STARLINK-3513,PAYLOAD,2024-02-20 08:24:00,15.08840276,0.0001507,53.2172,68.5503,99.8429,260.2734,4.5476e-05,4.36e-06,0.0,0 STARLINK-3513,1 51756U 22016AU  24051.35000248  .00000436  00000-0  45476-4 0  9992,2 51756  53.2172  68.5503 0001507  99.8429 260.2734 15.08840276111803,6917.88,95.438,540.787,538.702,0.0
51756.0,STARLINK-3513,PAYLOAD,2024-02-20 17:56:18,15.08844248,0.0001508,53.2176,66.7658,96.3598,263.7566,6.4043e-05,7.32e-06,0.0,0 STARLINK-3513,1 51756U 22016AU  24051.74743959  .00000732  00000-0  64043-4 0  9998,2 51756  53.2176  66.7658 0001508  96.3598 263.7566 15.08844248110799,6917.867,95.437,540.776,538.689,0.0
51756.0,STARLINK-3513,PAYLOAD,2024-02-21 08:14:47,15.08840175,0.0001583,53.2184,64.0896,101.4651,258.6519,9.8954e-05,1.287e-05,0.0,0 STARLINK-3513,1 51756U 22016AU  24052.34360365  .00001287  00000-0  98954-4 0  9995,2 51756  53.2184  64.0896 0001583 101.4651 258.6519 15.08840175110880,6917.88,95.438,540.84,538.65,0.0
51756.0,STARLINK-3513,PAYLOAD,2024-02-21 17:47:06,15.08837364,0.0001542,53.2179,62.3048,89.7644,270.3525,9.3648e-05,1.203e-05,0.0,0 STARLINK-3513,1 51756U 22016AU  24052.74104604  .00001203  00000-0  93648-4 0  9994,2 51756  53.2179  62.3048 0001542  89.7644 270.3525 15.08837364112010,6917.888,95.438,540.82,538.687,0.0
51756.0,STARLINK-3513,PAYLOAD,2024-02-22 08:05:34,15.08836854,0.0001337,53.217,59.6275,90.4467,269.6679,4.6774e-05,4.57e-06,0.0,0 STARLINK-3513,1 51756U 22016AU  24053.33720862  .00000457  00000-0  46774-4 0  9998,2 51756  53.2170  59.6275 0001337  90.4467 269.6679 15.08836854111031,6917.89,95.438,540.68,538.83,0.0
51756.0,STARLINK-3513,PAYLOAD,2024-02-22 17:37:53,15.08839026,0.0001337,53.217,57.8432,92.5826,267.5319,5.4211e-05,5.75e-06,0.0,0 STARLINK-3513,1 51756U 22016AU  24053.73464746  .00000575  00000-0  54211-4 0  9994,2 51756  53.2170  57.8432 0001337  92.5826 267.5319 15.08839026111096,6917.883,95.438,540.673,538.823,0.0
51756.0,STARLINK-3513,PAYLOAD,2024-02-23 06:20:58,15.08837656,0.0001101,53.2169,55.4634,92.9661,267.1457,0.00019265,2.779e-05,0.0,0 STARLINK-3513,1 51756U 22016AU  24054.26456517  .00002779  00000-0  19265-3 0  9997,2 51756  53.2169  55.4634 0001101  92.9661 267.1457 15.08837656112246,6917.888,95.438,540.514,538.991,0.0
51756.0,STARLINK-3513,PAYLOAD,2024-02-24 09:22:31,15.08848208,0.0001255,53.2172,50.4067,94.8211,265.2924,0.00014623,2.041e-05,0.0,0 STARLINK-3513,1 51756U 22016AU  24055.39063977  .00002041  00000-0  14623-3 0  9991,2 51756  53.2172  50.4067 0001255  94.8211 265.2924 15.08848208112419,6917.855,95.437,540.588,538.852,0.0
51756.0,STARLINK-3513,PAYLOAD,2024-02-25 06:02:32,15.08846065,0.0001399,53.2179,46.539,96.5715,263.5436,6.3162e-05,7.18e-06,0.0,0 STARLINK-3513,1 51756U 22016AU  24056.25176156  .00000718  00000-0  63162-4 0  9993,2 51756  53.2179  46.5390 0001399  96.5715 263.5436 15.08846065112540,6917.862,95.437,540.695,538.759,0.0
